satname,norad_id,inclination_deg,eccentricity,mean_motion_rev_per_day,perigee_km,apogee_km,l1,l2
STARLINK-1527,46048,53.161,0.0001063,15.30204932,474.4718336362721,475.92885315547755,1 46048U 20055X   26093.87227042  .00001328  00000+0  56932-4 0  9998,2 46048  53.1610 356.9640 0001063  95.1404 264.9718 15.30204932312907
STARLINK-1540,46051,53.1602,0.000145,15.30188751,474.2549161911584,476.24239803172077,1 46051U 20055AA  26093.76479732 -.00004147  00000+0 -12800-3 0  9994,2 46051  53.1602 357.3740 0001450  94.3060 265.8106 15.30188751312920
STARLINK-1541,46052,53.1621,0.0001636,15.30202886,474.08524536826553,476.3276593458777,1 46052U 20055AB  26093.88490633  .00001738  00000+0  70805-4 0  9992,2 46052  53.1621 356.8600 0001636 109.7721 250.3457 15.30202886312904
STARLINK-1543,46053,53.1608,0.0001673,15.30198572,474.07276665870177,476.36589968778117,1 46053U 20055AC  26093.76060385  .00006150  00000+0  21959-3 0  9995,2 46053  53.1608 357.4595 0001673 101.5788 258.5400 15.30198572312919
STARLINK-1548,46054,53.162,0.0001383,15.30209481,474.23894633230157,476.1345756845958,1 46054U 20055AD  26093.44139944  .00006642  00000+0  23611-3 0  9992,2 46054  53.1620 358.9441 0001383  94.7543 265.3616 15.30209481312861
STARLINK-1554,46055,53.1594,0.0001475,15.30205138,474.1888611529539,476.21059548780795,1 46055U 20055AE  26093.70057924  .00003165  00000+0  11892-3 0  9994,2 46055  53.1594 357.8652 0001475  91.1010 269.0160 15.30205138312901
STARLINK-1564,46058,53.1597,0.0001506,15.30207587,474.16030468842473,476.22452750855336,1 46058U 20055AH  26093.69852262  .00004586  00000+0  16685-3 0  9996,2 46058  53.1597 358.2092 0001506 102.9857 257.1312 15.30207587312890
STARLINK-1570,46059,53.1612,0.0001474,15.30198381,474.20971865818865,476.2300882733298,1 46059U 20055AJ  26093.72794784  .00003879  00000+0  14302-3 0  9993,2 46059  53.1612 357.6129 0001474  82.8194 277.2974 15.30198381312862
STARLINK-1572,46060,53.161,0.0001204,15.30200551,474.3882808420576,476.0385676242131,1 46060U 20055AK  26093.87546230  .00003579  00000+0  13290-3 0  9994,2 46060  53.1610 357.1340 0001204  72.5345 287.5787 15.30200551312899
STARLINK-1573,46061,53.1613,0.0001872,15.30203894,473.9204973310116,476.4863879927452,1 46061U 20055AL  26093.71213945  .00004830  00000+0  17510-3 0  9992,2 46061  53.1613 357.6373 0001872  82.3631 277.7582 15.30203894312901
STARLINK-1577,46063,53.1619,0.0001283,15.30201862,474.330225471379,476.0887941858018,1 46063U 20055AN  26093.86909639  .00002363  00000+0  91865-4 0  9997,2 46063  53.1619 356.8794 0001283  98.6818 261.4328 15.30201862312923
STARLINK-1583,46064,53.161,0.0001903,15.30211333,473.8770448735322,476.48541779237803,1 46064U 20055AP  26093.70897489  .00006713  00000+0  23851-3 0  9992,2 46064  53.1610 357.6571 0001903  86.3157 273.8061 15.30211333312897
STARLINK-1525,46066,53.0546,0.000178,15.31494617,470.1330905855875,472.57150877627373,1 46066U 20055AR  26093.84727705  .00134372  00000+0  42915-2 0  9996,2 46066  53.0546 340.1440 0001780 186.0877 174.0101 15.31494617313143
STARLINK-1536,46070,53.0569,0.0001454,15.10208551,534.5581832766493,536.5686873632412,1 46070U 20055AV  26093.88009208  .00002531  00000+0  17075-3 0  9997,2 46070  53.0569 343.3756 0001454  93.1203 266.9954 15.10208551313118
STARLINK-1542,46073,53.0527,0.0001177,15.06423827,546.3234276473559,547.953637507725,1 46073U 20055AY  26093.42378590  .00009558  00000+0  65923-3 0  9994,2 46073  53.0527 345.5828 0001177  87.9641 272.1483 15.06423827313035
STARLINK-1549,46074,53.053,0.0001597,15.13671839,523.9112580825349,526.11612441332,1 46074U 20055AZ  26093.83335647  .02013006  00000+0  10105+0 0  9999,2 46074  53.0530 343.5751 0001597 104.1969 126.1977 15.13671839  5618
STARLINK-1551,46075,53.0814,0.0001087,15.13153268,525.8402377729508,527.341325592688,1 46075U 20055BA  26093.83335647  .00948044  00000+0  49331-1 0  9992,2 46075  53.0814 343.6640 0001087  76.4076 330.8366 15.13153268  5725
STARLINK-1552,46076,53.0833,0.0001644,15.13431436,524.6097004239182,526.8796967264097,1 46076U 20055BB  26093.83335647  .00929274  00000+0  47466-1 0  9994,2 46076  53.0833 343.6570 0001644 119.7002 151.1958 15.13431436  5815
STARLINK-1559,46077,53.0259,0.0003582,15.32149401,466.94789368897636,471.85346968413705,1 46077U 20055BC  26093.63078924  .00054793  00000+0  17396-2 0  9990,2 46077  53.0259 317.6267 0003582 133.4109 226.7189 15.32149401313407
STARLINK-1566,46079,53.0848,0.0001892,15.13430351,524.4417831945366,527.0542132778683,1 46079U 20055BE  26093.83335647  .01817441  00000+0  91331-1 0  9990,2 46079  53.0848 343.6492 0001892 112.1623  63.1491 15.13430351  5727
STARLINK-1568,46080,53.0606,0.0004769,15.48583884,417.6254071316025,424.1102979599609,1 46080U 20055BF  26093.81030287  .00062545  00000+0  11520-2 0  9991,2 46080  53.0606 272.9145 0004769 206.4677 153.6088 15.48583884314089
STARLINK-1578,46082,53.054,0.0001264,15.10477632,533.8685381529358,535.6161140465747,1 46082U 20055BH  26093.87719948  .00073417  00000+0  43817-2 0  9991,2 46082  53.0540 343.3939 0001264 119.6641 240.4475 15.10477632313104
STARLINK-1579,46083,53.0803,0.0001457,15.12755462,526.7950142289201,528.8074046231477,1 46083U 20055BJ  26093.83335647  .00893321  00000+0  46642-1 0  9990,2 46083  53.0803 343.6609 0001457  95.5332 153.0799 15.12755462  5813
STARLINK-1585,46117,53.0297,0.0006231,16.07600108,249.30288278895205,257.56714783443476,1 46117U 20057A   26093.54813910  .01213888  88985-3  14801-2 0  9992,2 46117  53.0297 119.8969 0006231  34.2310 325.9123 16.07600108311004
STARLINK-1593,46119,53.0416,0.0006139,15.85308908,311.3458719603286,319.5642643015799,1 46119U 20057C   26093.83335647  .00309888  00000+0  12310-2 0  9998,2 46119  53.0416 144.3186 0006139  19.7792 201.1060 15.85308908  5926
STARLINK-1621,46127,53.0389,0.0007696,15.89623896,298.19447825904354,308.47860233226584,1 46127U 20057L   26093.83335647  .00432817  80965-4  14463-2 0  9990,2 46127  53.0389 116.9810 0007696  19.1816 111.4733 15.89623896  6025
STARLINK-1622,46128,53.0197,0.0002346,15.69007452,360.15674934606614,363.3190986604077,1 46128U 20057M   26093.83335647  .00143194  00000+0  12006-2 0  9996,2 46128  53.0197 100.4433 0002346 347.6976   6.9362 15.69007452  5987
STARLINK-1623,46129,53.0464,0.0003739,15.58056477,390.75052203163614,395.8141894258515,1 46129U 20057N   26093.83335647  .00182586  00000+0  23398-2 0  9991,2 46129  53.0464 134.3706 0003739 324.2376  67.3756 15.58056477  5950
